[{"OBJECT_NAME":"STARLINK-4211","OBJECT_ID":"2022-062AV","EPOCH":"2026-03-09T05:25:01.571232","MEAN_MOTION":15.08830167,"ECCENTRICITY":0.00014161,"INCLINATION":53.2203,"RA_OF_ASC_NODE":16.2045,"ARG_OF_PERICENTER":96.2205,"MEAN_ANOMALY":263.8949,"EPHEMERIS_TYPE":0,"CLASSIFICATION_TYPE":"U","NORAD_CAT_ID":52873,"ELEMENT_SET_NO":999,"REV_AT_EPOCH":20599,"BSTAR":3.3241054e-5,"MEAN_MOTION_DOT":2.41e-6,"MEAN_MOTION_DDOT":0},{"OBJECT_NAME":"CZ-6A DEB","OBJECT_ID":"2024-140DW","EPOCH":"2026-03-09T12:42:27.831456","MEAN_MOTION":14.74987574,"ECCENTRICITY":0.01550337,"INCLINATION":88.9082,"RA_OF_ASC_NODE":275.4322,"ARG_OF_PERICENTER":135.579,"MEAN_ANOMALY":225.799,"EPHEMERIS_TYPE":0,"CLASSIFICATION_TYPE":"U","NORAD_CAT_ID":60717,"ELEMENT_SET_NO":999,"REV_AT_EPOCH":8391,"BSTAR":0.0030954876,"MEAN_MOTION_DOT":0.00025382,"MEAN_MOTION_DDOT":0}]
